[Satellite]
VERSION=1.1
NAME=DIRECTV 14
NICKNAME=DIRECTV 14
TLE1=1 40333U 14078B   17186.09617877 -.00000130  00000-0  00000-0 0  9996
TLE2=2 40333   0.0270 289.6784 0001614  68.7621 220.2257  1.00272491  9386
